{
  "type": "FeatureCollection",
  "features": [
    {
      "type": "Feature",
      "properties": {
        "siteContext": "Imported harbor corridor package",
        "sourceSummary": "Example GeoJSON package for KARRAS import testing.",
        "waterwayType": "harbor",
        "spanDistanceM": 180,
        "channelWidthM": 120,
        "waterDepthM": 12,
        "navigationClearanceM": 44,
        "currentVelocity": 1.4,
        "vesselTraffic": 7,
        "bankStability": 8,
        "scourRisk": 4,
        "floodExposure": 4,
        "loadLevel": 5,
        "supportCount": 3,
        "bridgeSystem": "box",
        "foundationStrategy": "caisson"
      },
      "geometry": {
        "type": "LineString",
        "coordinates": [
          [-124.2134, 43.3662],
          [-124.203, 43.3681]
        ]
      }
    }
  ]
}
